[{"OBJECT_NAME":"ONEWEB-0615","OBJECT_ID":"2022-166AL","EPOCH":"2025-08-18T05:44:17.432160","MEAN_MOTION":13.21828236,"ECCENTRICITY":0.0001997,"INCLINATION":87.9254,"RA_OF_ASC_NODE":304.4391,"ARG_OF_PERICENTER":97.1668,"MEAN_ANOMALY":262.9693,"EPHEMERIS_TYPE":0,"CLASSIFICATION_TYPE":"U","NORAD_CAT_ID":54676,"ELEMENT_SET_NO":999,"REV_AT_EPOCH":13142,"BSTAR":5.1691e-5,"MEAN_MOTION_DOT":3.4e-7,"MEAN_MOTION_DDOT":0},{"OBJECT_NAME":"ONEWEB-0655","OBJECT_ID":"2022-166AM","EPOCH":"2025-08-18T14:10:44.930784","MEAN_MOTION":13.21825155,"ECCENTRICITY":0.0002246,"INCLINATION":87.9253,"RA_OF_ASC_NODE":304.3741,"ARG_OF_PERICENTER":92.0366,"MEAN_ANOMALY":268.1025,"EPHEMERIS_TYPE":0,"CLASSIFICATION_TYPE":"U","NORAD_CAT_ID":54677,"ELEMENT_SET_NO":999,"REV_AT_EPOCH":13146,"BSTAR":-8.2129e-5,"MEAN_MOTION_DOT":-2.1e-7,"MEAN_MOTION_DDOT":0},{"OBJECT_NAME":"ONEWEB-0659","OBJECT_ID":"2022-166AN","EPOCH":"2025-08-18T10:57:41.805504","MEAN_MOTION":13.21827412,"ECCENTRICITY":0.0001875,"INCLINATION":87.9253,"RA_OF_ASC_NODE":304.4016,"ARG_OF_PERICENTER":100.2016,"MEAN_ANOMALY":259.9329,"EPHEMERIS_TYPE":0,"CLASSIFICATION_TYPE":"U","NORAD_CAT_ID":54678,"ELEMENT_SET_NO":999,"REV_AT_EPOCH":13153,"BSTAR":0.00019027,"MEAN_MOTION_DOT":9.2e-7,"MEAN_MOTION_DDOT":0},{"OBJECT_NAME":"ONEWEB-0685","OBJECT_ID":"2022-166AP","EPOCH":"2025-08-18T10:59:58.443648","MEAN_MOTION":13.21824074,"ECCENTRICITY":0.0002268,"INCLINATION":87.9256,"RA_OF_ASC_NODE":304.3968,"ARG_OF_PERICENTER":100.8752,"MEAN_ANOMALY":259.2637,"EPHEMERIS_TYPE":0,"CLASSIFICATION_TYPE":"U","NORAD_CAT_ID":54679,"ELEMENT_SET_NO":999,"REV_AT_EPOCH":13142,"BSTAR":0.00016778,"MEAN_MOTION_DOT":8.2e-7,"MEAN_MOTION_DDOT":0},{"OBJECT_NAME":"ONEWEB-0712","OBJECT_ID":"2022-166AQ","EPOCH":"2025-08-18T14:12:39.328704","MEAN_MOTION":13.16593329,"ECCENTRICITY":0.0002297,"INCLINATION":87.9025,"RA_OF_ASC_NODE":289.0799,"ARG_OF_PERICENTER":83.1527,"MEAN_ANOMALY":276.9865,"EPHEMERIS_TYPE":0,"CLASSIFICATION_TYPE":"U","NORAD_CAT_ID":54680,"ELEMENT_SET_NO":999,"REV_AT_EPOCH":13224,"BSTAR":-7.7003e-5,"MEAN_MOTION_DOT":-1.7e-7,"MEAN_MOTION_DDOT":0},{"OBJECT_NAME":"ONEWEB-0714","OBJECT_ID":"2022-166AR","EPOCH":"2025-08-18T11:09:02.422368","MEAN_MOTION":13.21827581,"ECCENTRICITY":0.0002237,"INCLINATION":87.9256,"RA_OF_ASC_NODE":304.389,"ARG_OF_PERICENTER":97.4997,"MEAN_ANOMALY":262.6391,"EPHEMERIS_TYPE":0,"CLASSIFICATION_TYPE":"U","NORAD_CAT_ID":54681,"ELEMENT_SET_NO":999,"REV_AT_EPOCH":13154,"BSTAR":9.129e-5,"MEAN_MOTION_DOT":5.1e-7,"MEAN_MOTION_DDOT":0},{"OBJECT_NAME":"ONEWEB-0532","OBJECT_ID":"2023-004A","EPOCH":"2025-08-18T13:54:35.013024","MEAN_MOTION":13.17645497,"ECCENTRICITY":0.000176,"INCLINATION":87.9032,"RA_OF_ASC_NODE":66.071,"ARG_OF_PERICENTER":102.3379,"MEAN_ANOMALY":257.7949,"EPHEMERIS_TYPE":0,"CLASSIFICATION_TYPE":"U","NORAD_CAT_ID":55140,"ELEMENT_SET_NO":999,"REV_AT_EPOCH":12773,"BSTAR":8.7315e-5,"MEAN_MOTION_DOT":4.7e-7,"MEAN_MOTION_DDOT":0},{"OBJECT_NAME":"ONEWEB-0533","OBJECT_ID":"2023-004B","EPOCH":"2025-08-18T13:36:44.353728","MEAN_MOTION":13.12442483,"ECCENTRICITY":0.0001986,"INCLINATION":87.8862,"RA_OF_ASC_NODE":50.8061,"ARG_OF_PERICENTER":89.4687,"MEAN_ANOMALY":270.6669,"EPHEMERIS_TYPE":0,"CLASSIFICATION_TYPE":"U","NORAD_CAT_ID":55141,"ELEMENT_SET_NO":999,"REV_AT_EPOCH":12836,"BSTAR":0.0013291,"MEAN_MOTION_DOT":4.91e-6,"MEAN_MOTION_DDOT":0},{"OBJECT_NAME":"ONEWEB-0541","OBJECT_ID":"2023-004C","EPOCH":"2025-08-18T14:08:36.935232","MEAN_MOTION":13.11415691,"ECCENTRICITY":0.0001571,"INCLINATION":87.8784,"RA_OF_ASC_NODE":81.3507,"ARG_OF_PERICENTER":86.0099,"MEAN_ANOMALY":274.1208,"EPHEMERIS_TYPE":0,"CLASSIFICATION_TYPE":"U","NORAD_CAT_ID":55142,"ELEMENT_SET_NO":999,"REV_AT_EPOCH":12628,"BSTAR":0.00065922,"MEAN_MOTION_DOT":2.46e-6,"MEAN_MOTION_DDOT":0},{"OBJECT_NAME":"ONEWEB-0543","OBJECT_ID":"2023-004D","EPOCH":"2025-08-18T11:49:07.909824","MEAN_MOTION":13.18685775,"ECCENTRICITY":0.0001936,"INCLINATION":87.9129,"RA_OF_ASC_NODE":35.6305,"ARG_OF_PERICENTER":84.6921,"MEAN_ANOMALY":275.4432,"EPHEMERIS_TYPE":0,"CLASSIFICATION_TYPE":"U","NORAD_CAT_ID":55143,"ELEMENT_SET_NO":999,"REV_AT_EPOCH":12980,"BSTAR":0.00022785,"MEAN_MOTION_DOT":1.03e-6,"MEAN_MOTION_DDOT":0},{"OBJECT_NAME":"ONEWEB-0544","OBJECT_ID":"2023-004E","EPOCH":"2025-08-18T11:39:37.537632","MEAN_MOTION":13.18686414,"ECCENTRICITY":0.0001705,"INCLINATION":87.9128,"RA_OF_ASC_NODE":35.6218,"ARG_OF_PERICENTER":86.28,"MEAN_ANOMALY":273.8527,"EPHEMERIS_TYPE":0,"CLASSIFICATION_TYPE":"U","NORAD_CAT_ID":55144,"ELEMENT_SET_NO":999,"REV_AT_EPOCH":12980,"BSTAR":0.00030881,"MEAN_MOTION_DOT":1.35e-6,"MEAN_MOTION_DDOT":0},{"OBJECT_NAME":"ONEWEB-0560","OBJECT_ID":"2023-004F","EPOCH":"2025-08-18T11:30:08.035488","MEAN_MOTION":13.18685996,"ECCENTRICITY":0.0001624,"INCLINATION":87.9136,"RA_OF_ASC_NODE":35.5998,"ARG_OF_PERICENTER":84.2904,"MEAN_ANOMALY":275.8413,"EPHEMERIS_TYPE":0,"CLASSIFICATION_TYPE":"U","NORAD_CAT_ID":55145,"ELEMENT_SET_NO":999,"REV_AT_EPOCH":12981,"BSTAR":0.00030591,"MEAN_MOTION_DOT":1.34e-6,"MEAN_MOTION_DDOT":0},{"OBJECT_NAME":"ONEWEB-0565","OBJECT_ID":"2023-004G","EPOCH":"2025-08-18T11:20:36.477888","MEAN_MOTION":13.18687953,"ECCENTRICITY":0.0001287,"INCLINATION":87.9128,"RA_OF_ASC_NODE":35.657,"ARG_OF_PERICENTER":100.6387,"MEAN_ANOMALY":259.489,"EPHEMERIS_TYPE":0,"CLASSIFICATION_TYPE":"U","NORAD_CAT_ID":55146,"ELEMENT_SET_NO":999,"REV_AT_EPOCH":12980,"BSTAR":0.00025711,"MEAN_MOTION_DOT":1.14e-6,"MEAN_MOTION_DDOT":0},{"OBJECT_NAME":"ONEWEB-0567","OBJECT_ID":"2023-004H","EPOCH":"2025-08-18T11:11:06.617184","MEAN_MOTION":13.18688052,"ECCENTRICITY":0.0001409,"INCLINATION":87.9134,"RA_OF_ASC_NODE":35.6169,"ARG_OF_PERICENTER":90.8286,"MEAN_ANOMALY":269.3007,"EPHEMERIS_TYPE":0,"CLASSIFICATION_TYPE":"U","NORAD_CAT_ID":55147,"ELEMENT_SET_NO":999,"REV_AT_EPOCH":12980,"BSTAR":0.00020227,"MEAN_MOTION_DOT":9.3e-7,"MEAN_MOTION_DDOT":0},{"OBJECT_NAME":"ONEWEB-0569","OBJECT_ID":"2023-004J","EPOCH":"2025-08-18T10:20:14.028288","MEAN_MOTION":13.13468798,"ECCENTRICITY":0.0001073,"INCLINATION":87.8995,"RA_OF_ASC_NODE":20.3441,"ARG_OF_PERICENTER":65.3118,"MEAN_ANOMALY":294.8123,"EPHEMERIS_TYPE":0,"CLASSIFICATION_TYPE":"U","NORAD_CAT_ID":55148,"ELEMENT_SET_NO":999,"REV_AT_EPOCH":13043,"BSTAR":-0.00010453,"MEAN_MOTION_DOT":-2.5e-7,"MEAN_MOTION_DDOT":0},{"OBJECT_NAME":"ONEWEB-0570","OBJECT_ID":"2023-004K","EPOCH":"2025-08-18T10:56:52.522944","MEAN_MOTION":13.18686043,"ECCENTRICITY":0.0001682,"INCLINATION":87.913,"RA_OF_ASC_NODE":35.6205,"ARG_OF_PERICENTER":111.8289,"MEAN_ANOMALY":248.3022,"EPHEMERIS_TYPE":0,"CLASSIFICATION_TYPE":"U","NORAD_CAT_ID":55149,"ELEMENT_SET_NO":999,"REV_AT_EPOCH":12979,"BSTAR":0.0001723,"MEAN_MOTION_DOT":8.1e-7,"MEAN_MOTION_DDOT":0},{"OBJECT_NAME":"ONEWEB-0571","OBJECT_ID":"2023-004L","EPOCH":"2025-08-18T12:36:37.666944","MEAN_MOTION":13.18683254,"ECCENTRICITY":5.4e-5,"INCLINATION":87.9127,"RA_OF_ASC_NODE":35.6126,"ARG_OF_PERICENTER":90.6942,"MEAN_ANOMALY":269.4252,"EPHEMERIS_TYPE":0,"CLASSIFICATION_TYPE":"U","NORAD_CAT_ID":55150,"ELEMENT_SET_NO":999,"REV_AT_EPOCH":12981,"BSTAR":-4.4771e-5,"MEAN_MOTION_DOT":-5.0e-8,"MEAN_MOTION_DDOT":0}]
